{"spkid": "20443806", "covariance": {"labels": ["e", "q", "tp", "node", "peri", "i"], "data": [["6.182142299143203E-15", "-7.803626497280876E-15", "2.056952526492503E-12", "-3.966222669008563E-13", "1.906213410822978E-12", "7.566882316732716E-13"], ["-7.803626497280876E-15", "9.854069978855077E-15", "-2.525832742912115E-12", "4.943979914131531E-13", "-2.363308921101334E-12", "-9.593805294024236E-13"], ["2.056952526492503E-12", "-2.525832742912115E-12", "2.720609579354072E-9", "-3.831321056924616E-10", "2.049262783619285E-9", "2.504764599412026E-10"], ["-3.966222669008563E-13", "4.943979914131531E-13", "-3.831321056924616E-10", "2.727544264234288E-10", "-4.881164925536231E-10", "-3.462951768705962E-10"], ["1.906213410822978E-12", "-2.363308921101334E-12", "2.049262783619285E-9", "-4.881164925536231E-10", "1.784380619263236E-9", "5.174112735460669E-10"], ["7.566882316732716E-13", "-9.593805294024236E-13", "2.504764599412026E-10", "-3.462951768705962E-10", "5.174112735460669E-10", "2.93581520125584E-9"]], "elements": [{"name": "e", "sigma": 7.86266004552098e-08, "units": null, "value": ".247909483713912", "title": "eccentricity", "label": "e"}, {"units": "au", "title": "perihelion distance", "value": ".9476592672758627", "name": "q", "sigma": 9.92676683460183e-08, "label": "q"}, {"label": "tp", "value": "2456708.309140133811", "title": "time of perihelion passage", "units": "TDB", "name": "tp", "sigma": 5.21594629895101e-05}, {"sigma": 1.6515278575411e-05, "name": "om", "units": "deg", "title": "longitude of the ascending node", "value": "180.1435280198093", "label": "node"}, {"label": "peri", "units": "deg", "value": "121.2977834916465", "title": "argument of perihelion", "sigma": 4.22419296347034e-05, "name": "w"}, {"label": "i", "units": "deg", "title": "inclination", "value": "26.3832004549321", "sigma": 5.41831634482137e-05, "name": "i"}], "epoch": "2456710.5"}, "elements": [{"units": null, "title": "eccentricity", "value": ".2477993495009387", "name": "e", "sigma": "7.8598E-8", "label": "e"}, {"sigma": "1.9482E-9", "name": "a", "title": "semi-major axis", "value": "1.260027022626942", "units": "au", "label": "a"}, {"units": "au", "value": ".9477931460663813", "title": "perihelion distance", "name": "q", "sigma": "9.9182E-8", "label": "q"}, {"name": "i", "sigma": "5.4188E-5", "units": "deg", "value": "26.38693132632813", "title": "inclination; angle with respect to x-y ecliptic plane", "label": "i"}, {"value": "180.086771558407", "title": "longitude of the ascending node", "units": "deg", "name": "om", "sigma": "1.6482E-5", "label": "node"}, {"label": "peri", "name": "w", "sigma": "4.216E-5", "units": "deg", "value": "121.3646264729311", "title": "argument of perihelion"}, {"units": "deg", "value": "250.6345839037173", "title": "mean anomaly", "sigma": "4.2192E-5", "name": "ma", "label": "M"}, {"sigma": "6.0807E-5", "name": "tp", "value": "2461357.444363991395", "title": "time of perihelion passage", "units": "TDB", "label": "tp"}, {"name": "per", "sigma": "1.1981E-6", "units": "d", "value": "516.6164318998343", "title": "sidereal orbital period", "label": "period"}, {"name": "n", "sigma": "1.6161E-9", "units": "deg/d", "value": ".696841946502003", "title": "mean motion", "label": "n"}, {"label": "Q", "name": "ad", "sigma": "2.4309E-9", "units": "au", "value": "1.572260899187503", "title": "aphelion distance"}], "epoch": "2461200.5"}